STARLINK-11269 [DTC]    
1 60995C 24158F   26118.27895833  .00078353  00000+0  64545-3 0  1187
2 60995  53.1572  37.0487 0001080  92.9701 132.5142 15.69669140    16
STARLINK-11281 [DTC]    
1 60996C 24158G   26118.32618056  .00060555  00000+0  49885-3 0  1189
2 60996  53.1573  36.7589 0001103  82.9673  77.2354 15.69677313    11
STARLINK-11260 [DTC]    
1 60997C 24158H   26118.31159722  .00037478  00000+0  30868-3 0  1188
2 60997  53.1573  14.4858 0001170  86.4934   8.4402 15.69693913    11
STARLINK-11287 [DTC]    
1 60998C 24158J   26118.28451389  .00091127  00000+0  75086-3 0  1181
2 60998  53.1574  36.9078 0001042  91.0526 221.3083 15.69657249    16
STARLINK-11270 [DTC]    
1 60999C 24158K   26118.31645833  .00067153  00000+0  55314-3 0  1189
2 60999  53.1568  36.6937 0001214  87.4169  73.3075 15.69676801    15
STARLINK-11290 [DTC]    
1 61000C 24158L   26118.30534722  .00061261  00000+0  50471-3 0  1189
2 61000  53.1567  36.6916 0001158  80.0521  45.5741 15.69675052    11
STARLINK-11274 [DTC]    
1 61001C 24158M   26118.25604167  .00110220  00000+0  90665-3 0  1184
2 61001  53.1568  36.8205 0001347  52.0133 210.1950 15.69687093    14
STARLINK-11288 [DTC]    
1 61002C 24158N   26118.30881944  .00068525  00000+0  56442-3 0  1186
2 61002  53.1568  36.5047 0001019  93.1267 135.3453 15.69677250    16
STARLINK-32279          
1 61003C 24158P   26118.25812500  .00018375  00000+0  61925-3 0  1183
2 61003  53.1590 195.3369 0001314  87.0045 132.3313 15.30184595    12
STARLINK-32336          
1 61004C 24158Q   26118.28659722  .00003912  00000+0  13183-3 0  1186
2 61004  53.1592 195.1601 0001217  87.9939 311.5346 15.30191634    14
STARLINK-32284          
1 61005C 24158R   26118.26090278  .00018210  00000+0  61378-3 0  1186
2 61005  53.1588 195.3617 0001296  95.5318 121.6634 15.30181333    17
STARLINK-32282          
1 61006C 24158S   26118.28243056  .00004843  00000+0  16315-3 0  1181
2 61006  53.1596 195.0739 0001352  88.6011 340.3021 15.30203908    18
STARLINK-32360          
1 61007C 24158T   26118.30465278 -.00028785  00000+0 -97024-3 0  1186
2 61007  53.1581 179.7684 0001207  90.8905  54.4729 15.30203202    12
STARLINK-32340          
1 61008C 24158U   26118.29979167 -.00002758  00000+0 -92967-4 0  1186
2 61008  53.1582 195.2206 0001285  90.3613 283.0810 15.30193228    11
STARLINK-32347          
1 61010C 24158W   26118.32479167 -.00008413  00000+0 -28352-3 0  1188
2 61010  53.1596 194.9092 0001239  90.7681 194.1848 15.30198801    11
STARLINK-11286 [DTC]    
1 61050C 24164A   26118.28520833  .00052474  00000+0  43240-3 0  1188
2 61050  53.1571  66.8014 0001314  88.4571  75.6127 15.69674290    11
STARLINK-11252 [DTC]    
1 61051C 24164B   26118.28798611  .00057452  00000+0  47346-3 0  1182
2 61051  53.1570  66.7302 0001195  92.4030 115.1087 15.69670180    11
STARLINK-11230 [DTC]    
1 61053C 24164D   26118.30812500  .00054212  00000+0  44681-3 0  1181
2 61053  53.1566  66.5179 0001165  89.9635 286.8910 15.69668714    18
STARLINK-11294 [DTC]    
1 61054C 24164E   26118.28104167  .00055164  00000+0  45456-3 0  1180
2 61054  53.1566  66.5946 0001275  74.0282 177.4315 15.69673675    12
STARLINK-11268 [DTC]    
1 61055C 24164F   26118.29493056  .00078720  00000+0  64857-3 0  1189
2 61055  53.1564  66.4689 0001207  79.0957 278.6295 15.69665341    15
STARLINK-11156 [DTC]    
1 61056C 24164G   26118.28937500  .00063692  00000+0  54426-3 0  1189
2 61056  53.1589  65.9345 0001159  82.5090 157.0206 15.68790029    12
STARLINK-11231 [DTC]    
1 61057C 24164H   26118.31993056  .00071873  00000+0  59233-3 0  1183
2 61057  53.1567  66.9659 0001135  76.0336 117.9487 15.69661846    14
STARLINK-11299 [DTC]    
1 61058C 24164J   26118.28104167  .00015646  00000+0  12891-3 0  1182
2 61058  53.1570  67.1008 0001366  87.9027 273.9239 15.69694433    10
STARLINK-11154 [DTC]    
1 61059C 24164K   26118.30604167  .00101990  00000+0  84017-3 0  1188
2 61059  53.1570  66.9208 0001133  76.7480  94.1712 15.69656491    12
STARLINK-11297 [DTC]    
1 61060C 24164L   26118.29284722  .00045600  00000+0  37572-3 0  1188
2 61060  53.1570  66.9292 0001241  87.7656  36.2857 15.69679796    14
STARLINK-11233 [DTC]    
1 61061C 24164M   26118.32548611  .00078366  00000+0  64558-3 0  1182
2 61061  53.1569  66.7112 0001305  84.6285 251.7114 15.69668002    15
STARLINK-11236 [DTC]    
1 61062C 24164N   26118.29840278  .00050602  00000+0  41701-3 0  1181
2 61062  53.1572  66.7873 0001256  88.2480 122.6913 15.69673005    18
STARLINK-32350          
1 61063C 24164P   26118.26923611  .00043121  00000+0  14534-2 0  1183
2 61063  53.1583 220.8066 0001272  93.0956  88.5329 15.30168235    11
STARLINK-32378          
1 61064C 24164Q   26118.29979167  .00044663  00000+0  15053-2 0  1183
2 61064  53.1581 220.6993 0001191  90.0046 242.5874 15.30170150    10
STARLINK-32321          
1 61065C 24164R   26118.30951389  .00038814  00000+0  13080-2 0  1181
2 61065  53.1580 220.7602 0001143  95.3388 238.4741 15.30176309    11
STARLINK-32381          
1 61066C 24164S   26118.29284722  .00039630  00000+0  13358-2 0  1185
2 61066  53.1583 220.9469 0001236  95.9617  87.8378 15.30168364    16
STARLINK-32385          
1 61068C 24164U   26118.32756944  .00029747  00000+0  10025-2 0  1187
2 61068  53.1581 220.6409 0001196  92.4542 358.3382 15.30181131    19
STARLINK-32380          
1 61069C 24164V   26118.27409722  .00045049  00000+0  15181-2 0  1182
2 61069  53.1581 220.8537 0001184  98.0719  75.4380 15.30173666    18
STARLINK-32375          
1 61070C 24164W   26118.29145833  .00042940  00000+0  14472-2 0  1185
2 61070  53.1577 220.8719 0001228  99.1145 117.7480 15.30171874    11
STARLINK-11209 [DTC]    
1 61200C 24171A   26118.27409722 -.00012834  00000+0 -10575-3 0  1188
2 61200  53.1564 292.0245 0000972  94.4614 276.6396 15.69708095    15
STARLINK-11257 [DTC]    
1 61201C 24171B   26118.30673611 -.00031704  00000+0 -26120-3 0  1183
2 61201  53.1566 291.8006 0001153  88.2160 135.1732 15.69720937    11
STARLINK-11309 [DTC]    
1 61202C 24171C   26118.27895833  .00097019  00000+0  80049-3 0  1181
2 61202  53.1565 291.8804 0000972 113.4703 340.6459 15.69621831    11
STARLINK-11292 [DTC]    
1 61203C 24171D   26118.31437500  .00005471  00000+0  45080-4 0  1188
2 61203  53.1564 291.6485 0001053  94.4515 227.6083 15.69699322    11
STARLINK-11302 [DTC]    
1 61204C 24171E   26118.28937500 -.00163050  00000+0 -13436-2 0  1188
2 61204  53.1565 291.7146 0000998 103.6042 104.8542 15.69782161    13
STARLINK-11277 [DTC]    
1 61205C 24171F   26118.33312500  .00156680  00000+0  12928-2 0  1186
2 61205  53.1561 291.3851 0001420 103.0366  48.1958 15.69591435    16
STARLINK-11279 [DTC]    
1 61206C 24171G   26118.26020833 -.00054059  00000+0 -44531-3 0  1189
2 61206  53.1562 291.6880 0000981  89.0235  37.7025 15.69736171    19
STARLINK-11091 [DTC]    
1 61207C 24171H   26118.30118056  .00008431  00000+0  69472-4 0  1183
2 61207  53.1562 291.5999 0001173  80.3238 222.5984 15.69696326    16
STARLINK-11291 [DTC]    
1 61208C 24171J   26118.28659722 -.00011765  00000+0 -96973-4 0  1183
2 61208  53.1566 291.5002 0001287  80.8753 222.8096 15.69700072    10
STARLINK-11304 [DTC]    
1 61209C 24171K   26118.30951389 -.00024800  00000+0 -20434-3 0  1183
2 61209  53.1567 291.3300 0001017  95.8352   5.1622 15.69715486    15
STARLINK-11307 [DTC]    
1 61210C 24171L   26118.27479167  .00007830  00000+0  64517-4 0  1183
2 61210  53.1569 292.1794 0001188 101.1852 190.6343 15.69699591    18
STARLINK-11298 [DTC]    
1 61211C 24171M   26118.27131944 -.00019108  00000+0 -15749-3 0  1187
2 61211  53.1568 292.1396 0001096  99.6383 200.2981 15.69704474    17
STARLINK-11310 [DTC]    
1 61212C 24171N   26118.31715278  .00011168  00000+0  92062-4 0  1181
2 61212  53.1566 291.8567 0001092  82.6718 144.1531 15.69687057    16
STARLINK-32386          
1 61213C 24171P   26118.27201389  .00025562  00000+0  86166-3 0  1180
2 61213  53.1581  91.7913 0001515  72.3267 324.3689 15.30173255    15
STARLINK-32392          
1 61214C 24171Q   26118.26576389 -.00005628  00000+0 -18971-3 0  1187
2 61214  53.1568  92.0157 0001304  85.0111 178.4823 15.30188732    14
STARLINK-32436          
1 61215C 24171R   26118.32479167  .00043250  00000+0  14580-2 0  1183
2 61215  53.1582  91.5585 0001563  75.3217 246.5868 15.30161843    16
STARLINK-32425          
1 61216C 24171S   26118.29076389  .00017689  00000+0  59623-3 0  1184
2 61216  53.1592  92.1522 0001446  85.3443 187.9737 15.30178970    10
STARLINK-32342          
1 61217C 24171T   26118.30118056  .00020998  00000+0  70778-3 0  1186
2 61217  53.1579  91.9876 0001338  89.0466 299.8477 15.30177596    18
STARLINK-32423          
1 61218C 24171U   26118.33312500  .00040332  00000+0  13595-2 0  1187
2 61218  53.1581  91.8632 0001290  83.6991 109.6379 15.30166894    19
STARLINK-32248          
1 61219C 24171V   26118.27131944 -.00004701  00000+0 -15847-3 0  1187
2 61219  53.1594  92.3399 0001456  79.3351  34.4690 15.30187451    19
STARLINK-11300 [DTC]    
1 61243C 24175A   26118.28729167 -.00007536  00000+0 -62067-4 0  1185
2 61243  53.1570 171.7936 0001341  69.6986  16.1176 15.69716049    17
STARLINK-11276 [DTC]    
1 61244C 24175B   26118.29701389 -.00005979  00000+0 -49251-4 0  1182
2 61244  53.1571 171.6886 0001280  75.8587  92.6740 15.69710931    10
STARLINK-11280 [DTC]    
1 61245C 24175C   26118.28590278 -.00005557  00000+0 -45765-4 0  1183
2 61245  53.1574 171.6375 0001200  86.4162  74.7607 15.69715250    18
STARLINK-11308 [DTC]    
1 61246C 24175D   26118.26229167 -.00004036  00000+0 -33236-4 0  1189
2 61246  53.1573 171.8027 0001147  85.2205 274.7147 15.69720493    15
STARLINK-11305 [DTC]    
1 61247C 24175E   26118.27826389  .00000222  00000+0  18300-5 0  1187
2 61247  53.1574 171.6104 0001183  96.7335  48.9856 15.69719507    14
